[
    {
        "Altitude(m)": 607910.9882572552,
        "Argument of Periapsis(deg)": 0.0,
        "Eccentricity": 0.0,
        "Inclination(deg)": 60.0,
        "Latitude(deg)": -14.292827061291673,
        "Longitude(deg)": 103.44264885186146,
        "Mean Anomaly(deg)": 196.36359999999996,
        "RAAN(deg)": 15.0,
        "Satellite Name": "Test1 78",
        "Satellite Number": 78,
        "Semi-Major Axis(m)": 6980739.136638005,
        "Time(s)": 0
    },
    {
        "Altitude(m)": 608060.2211396955,
        "Argument of Periapsis(deg)": 0.00010418945913296404,
        "Eccentricity": 0.0,
        "Inclination(deg)": 60.0,
        "Latitude(deg)": -14.826488444565499,
        "Longitude(deg)": 103.7312581894661,
        "Mean Anomaly(deg)": 196.9837061454618,
        "RAAN(deg)": 14.999579950860259,
        "Satellite Name": "Test1 78",
        "Satellite Number": 78,
        "Semi-Major Axis(m)": 6980739.136638005,
        "Time(s)": 10
    }
]